{"type": "FeatureCollection", "features": [ {"type": "Feature", "properties": {"norad_id": 66808, "name": "STARLINK-36071", "group": "last-30-days", "lat": 42.97073552605534, "lon": -65.8772035988545, "alt_km": 379.37054732242086, "timestamp": "2025-12-20T20:38:43.173075+00:00", "meta": {"OBJECT_NAME": "STARLINK-36071", "OBJECT_ID": "2025-278T", "EPOCH": "2025-12-20T14:00:03.000384", "MEAN_MOTION": 15.6206663, "ECCENTRICITY": 0.00016111, "INCLINATION": 42.9994, "RA_OF_ASC_NODE": 204.4102, "ARG_OF_PERICENTER": 252.8731, "MEAN_ANOMALY": 79.9657, "EPHEMERIS_TYPE": 0, "CLASSIFICATION_TYPE": "U", "NORAD_CAT_ID": 66808, "ELEMENT_SET_NO": 999, "REV_AT_EPOCH": 421, "BSTAR": -0.024390376, "MEAN_MOTION_DOT": -0.01936727, "MEAN_MOTION_DDOT": 0}, "tle": {"line1": "1 66808U 25278T   25354.58336806 -.01936727  00000+0 -24390-1 0  9995", "line2": "2 66808  42.9994 204.4102 0001611 252.8731  79.9657 15.62066630  4212"}}, "geometry": {"type": "Point", "coordinates": [-65.8772035988545, 42.97073552605534]}}, {"type": "Feature", "properties": {"norad_id": 66809, "name": "STARLINK-35979", "group": "last-30-days", "lat": 42.609547636536604, "lon": -58.060883539914926, "alt_km": 379.39796776039384, "timestamp": "2025-12-20T20:38:43.173087+00:00", "meta": {"OBJECT_NAME": "STARLINK-35979", "OBJECT_ID": "2025-278U", "EPOCH": "2025-12-20T14:00:03.000384", "MEAN_MOTION": 15.62070017, "ECCENTRICITY": 0.00016268, "INCLINATION": 42.9993, "RA_OF_ASC_NODE": 204.394, "ARG_OF_PERICENTER": 253.9143, "MEAN_ANOMALY": 84.6733, "EPHEMERIS_TYPE": 0, "CLASSIFICATION_TYPE": "U", "NORAD_CAT_ID": 66809, "ELEMENT_SET_NO": 999, "REV_AT_EPOCH": 421, "BSTAR": -0.024446065, "MEAN_MOTION_DOT": -0.01940863, "MEAN_MOTION_DDOT": 0}, "tle": {"line1": "1 66809U 25278U   25354.58336806 -.01940863  00000+0 -24446-1 0  9994", "line2": "2 66809  42.9993 204.3940 0001626 253.9143  84.6733 15.62070017  4218"}}, "geometry": {"type": "Point", "coordinates": [-58.060883539914926, 42.609547636536604]}}, {"type": "Feature", "properties": {"norad_id": 66810, "name": "STARLINK-36046", "group": "last-30-days", "lat": 42.90982525892353, "lon": -63.26252840266788, "alt_km": 379.3785873945408, "timestamp": "2025-12-20T20:38:43.173097+00:00", "meta": {"OBJECT_NAME": "STARLINK-36046", "OBJECT_ID": "2025-278V", "EPOCH": "2025-12-20T14:00:03.000384", "MEAN_MOTION": 15.62067435, "ECCENTRICITY": 0.0001641, "INCLINATION": 42.9994, "RA_OF_ASC_NODE": 204.4052, "ARG_OF_PERICENTER": 252.1434, "MEAN_ANOMALY": 82.6119, "EPHEMERIS_TYPE": 0, "CLASSIFICATION_TYPE": "U", "NORAD_CAT_ID": 66810, "ELEMENT_SET_NO": 999, "REV_AT_EPOCH": 399, "BSTAR": -0.024400046, "MEAN_MOTION_DOT": -0.0193748, "MEAN_MOTION_DDOT": 0}, "tle": {"line1": "1 66810U 25278V   25354.58336806 -.01937480  00000+0 -24400-1 0  9997", "line2": "2 66810  42.9994 204.4052 0001641 252.1434  82.6119 15.62067435  3997"}}, "geometry": {"type": "Point", "coordinates": [-63.26252840266788, 42.90982525892353]}}, {"type": "Feature", "properties": {"norad_id": 66811, "name": "STARLINK-36045", "group": "last-30-days", "lat": 42.789503867692915, "lon": -60.654963240650666, "alt_km": 379.35534858168194, "timestamp": "2025-12-20T20:38:43.173107+00:00", "meta": {"OBJECT_NAME": "STARLINK-36045", "OBJECT_ID": "2025-278W", "EPOCH": "2025-12-20T14:00:03.000384", "MEAN_MOTION": 15.62065888, "ECCENTRICITY": 0.00015968, "INCLINATION": 42.9996, "RA_OF_ASC_NODE": 204.4001, "ARG_OF_PERICENTER": 252.5152, "MEAN_ANOMALY": 84.1577, "EPHEMERIS_TYPE": 0, "CLASSIFICATION_TYPE": "U", "NORAD_CAT_ID": 66811, "ELEMENT_SET_NO": 999, "REV_AT_EPOCH": 421, "BSTAR": -0.024368735, "MEAN_MOTION_DOT": -0.01935152, "MEAN_MOTION_DDOT": 0}, "tle": {"line1": "1 66811U 25278W   25354.58336806 -.01935152  00000+0 -24369-1 0  9996", "line2": "2 66811  42.9996 204.4001 0001596 252.5152  84.1577 15.62065888  4215"}}, "geometry": {"type": "Point", "coordinates": [-60.654963240650666, 42.789503867692915]}}, {"type": "Feature", "properties": {"norad_id": 66812, "name": "STARLINK-36054", "group": "last-30-days", "lat": 42.371731409616814, "lon": -55.48087440490858, "alt_km": 379.41452872552964, "timestamp": "2025-12-20T20:38:43.173119+00:00", "meta": {"OBJECT_NAME": "STARLINK-36054", "OBJECT_ID": "2025-278X", "EPOCH": "2025-12-20T14:00:03.000384", "MEAN_MOTION": 15.62067012, "ECCENTRICITY": 0.00016118, "INCLINATION": 42.9996, "RA_OF_ASC_NODE": 204.3908, "ARG_OF_PERICENTER": 254.3347, "MEAN_ANOMALY": 86.1722, "EPHEMERIS_TYPE": 0, "CLASSIFICATION_TYPE": "U", "NORAD_CAT_ID": 66812, "ELEMENT_SET_NO": 999, "REV_AT_EPOCH": 421, "BSTAR": -0.02440582, "MEAN_MOTION_DOT": -0.01937834, "MEAN_MOTION_DDOT": 0}, "tle": {"line1": "1 66812U 25278X   25354.58336806 -.01937834  00000+0 -24406-1 0  9998", "line2": "2 66812  42.9996 204.3908 0001611 254.3347  86.1722 15.62067012  4210"}}, "geometry": {"type": "Point", "coordinates": [-55.48087440490858, 42.371731409616814]}}, {"type": "Feature", "properties": {"norad_id": 66813, "name": "STARLINK-36042", "group": "last-30-days", "lat": 42.07581455056903, "lon": -52.92365311296456, "alt_km": 379.4483440836766, "timestamp": "2025-12-20T20:38:43.173129+00:00", "meta": {"OBJECT_NAME": "STARLINK-36042", "OBJECT_ID": "2025-278Y", "EPOCH": "2025-12-20T14:00:03.000384", "MEAN_MOTION": 15.62066395, "ECCENTRICITY": 0.00015863, "INCLINATION": 42.9995, "RA_OF_ASC_NODE": 204.3852, "ARG_OF_PERICENTER": 256.4475, "MEAN_ANOMALY": 85.9777, "EPHEMERIS_TYPE": 0, "CLASSIFICATION_TYPE": "U", "NORAD_CAT_ID": 66813, "ELEMENT_SET_NO": 999, "REV_AT_EPOCH": 421, "BSTAR": -0.024401934, "MEAN_MOTION_DOT": -0.01937502, "MEAN_MOTION_DDOT": 0}, "tle": {"line1": "1 66813U 25278Y   25354.58336806 -.01937502  00000+0 -24402-1 0  9997", "line2": "2 66813  42.9995 204.3852 0001586 256.4475  85.9777 15.62066395  4214"}}, "geometry": {"type": "Point", "coordinates": [-52.92365311296456, 42.07581455056903]}}, {"type": "Feature", "properties": {"norad_id": 66814, "name": "STARLINK-35984", "group": "last-30-days", "lat": 39.170663410115665, "lon": -38.25569343691934, "alt_km": 379.7862736299394, "timestamp": "2025-12-20T20:38:43.173139+00:00", "meta": {"OBJECT_NAME": "STARLINK-35984", "OBJECT_ID": "2025-278Z", "EPOCH": "2025-12-20T14:00:03.000384", "MEAN_MOTION": 15.62069005, "ECCENTRICITY": 0.00016783, "INCLINATION": 42.9998, "RA_OF_ASC_NODE": 204.356, "ARG_OF_PERICENTER": 253.9031, "MEAN_ANOMALY": 100.0204, "EPHEMERIS_TYPE": 0, "CLASSIFICATION_TYPE": "U", "NORAD_CAT_ID": 66814, "ELEMENT_SET_NO": 999, "REV_AT_EPOCH": 430, "BSTAR": -0.024413948, "MEAN_MOTION_DOT": -0.01938585, "MEAN_MOTION_DDOT": 0}, "tle": {"line1": "1 66814U 25278Z   25354.58336806 -.01938585  00000+0 -24414-1 0  9993", "line2": "2 66814  42.9998 204.3560 0001678 253.9031 100.0204 15.62069005  4301"}}, "geometry": {"type": "Point", "coordinates": [-38.25569343691934, 39.170663410115665]}}, {"type": "Feature", "properties": {"norad_id": 66815, "name": "STARLINK-35985", "group": "last-30-days", "lat": 39.78136920893968, "lon": -40.60613135576339, "alt_km": 379.74136934507624, "timestamp": "2025-12-20T20:38:43.173149+00:00", "meta": {"OBJECT_NAME": "STARLINK-35985", "OBJECT_ID": "2025-278AA", "EPOCH": "2025-12-20T14:00:03.000384", "MEAN_MOTION": 15.62067456, "ECCENTRICITY": 0.00016895, "INCLINATION": 42.9996, "RA_OF_ASC_NODE": 204.3606, "ARG_OF_PERICENTER": 254.8848, "MEAN_ANOMALY": 97.1243, "EPHEMERIS_TYPE": 0, "CLASSIFICATION_TYPE": "U", "NORAD_CAT_ID": 66815, "ELEMENT_SET_NO": 999, "REV_AT_EPOCH": 430, "BSTAR": -0.024414395, "MEAN_MOTION_DOT": -0.0193852, "MEAN_MOTION_DDOT": 0}, "tle": {"line1": "1 66815U 25278AA  25354.58336806 -.01938520  00000+0 -24414-1 0  9993", "line2": "2 66815  42.9996 204.3606 0001689 254.8848  97.1243 15.62067456  4306"}}, "geometry": {"type": "Point", "coordinates": [-40.60613135576339, 39.78136920893968]}}, {"type": "Feature", "properties": {"norad_id": 66816, "name": "STARLINK-36098", "group": "last-30-days", "lat": 41.7239761250049, "lon": -50.39587159655289, "alt_km": 379.5434554903086, "timestamp": "2025-12-20T20:38:43.173161+00:00", "meta": {"OBJECT_NAME": "STARLINK-36098", "OBJECT_ID": "2025-278AB", "EPOCH": "2025-12-20T14:00:03.000384", "MEAN_MOTION": 15.62068342, "ECCENTRICITY": 0.00016923, "INCLINATION": 42.9993, "RA_OF_ASC_NODE": 204.3804, "ARG_OF_PERICENTER": 255.7599, "MEAN_ANOMALY": 88.5805, "EPHEMERIS_TYPE": 0, "CLASSIFICATION_TYPE": "U", "NORAD_CAT_ID": 66816, "ELEMENT_SET_NO": 999, "REV_AT_EPOCH": 406, "BSTAR": -0.024436821, "MEAN_MOTION_DOT": -0.01940151, "MEAN_MOTION_DDOT": 0}, "tle": {"line1": "1 66816U 25278AB  25354.58336806 -.01940151  00000+0 -24437-1 0  9992", "line2": "2 66816  42.9993 204.3804 0001692 255.7599  88.5805 15.62068342  4067"}}, "geometry": {"type": "Point", "coordinates": [-50.39587159655289, 41.7239761250049]}}, {"type": "Feature", "properties": {"norad_id": 66817, "name": "STARLINK-35995", "group": "last-30-days", "lat": 40.856253019081, "lon": -45.42855503704133, "alt_km": 379.65664801972525, "timestamp": "2025-12-20T20:38:43.173171+00:00", "meta": {"OBJECT_NAME": "STARLINK-35995", "OBJECT_ID": "2025-278AC", "EPOCH": "2025-12-20T14:00:03.000384", "MEAN_MOTION": 15.6206858, "ECCENTRICITY": 0.00017058, "INCLINATION": 42.9992, "RA_OF_ASC_NODE": 204.3705, "ARG_OF_PERICENTER": 256.8852, "MEAN_ANOMALY": 91.2892, "EPHEMERIS_TYPE": 0, "CLASSIFICATION_TYPE": "U", "NORAD_CAT_ID": 66817, "ELEMENT_SET_NO": 999, "REV_AT_EPOCH": 421, "BSTAR": -0.024436949, "MEAN_MOTION_DOT": -0.01940186, "MEAN_MOTION_DDOT": 0}, "tle": {"line1": "1 66817U 25278AC  25354.58336806 -.01940186  00000+0 -24437-1 0  9991", "line2": "2 66817  42.9992 204.3705 0001705 256.8852  91.2892 15.62068580  4214"}}, "geometry": {"type": "Point", "coordinates": [-45.42855503704133, 40.856253019081]}}]}